OBJECT_NAME,OBJECT_ID,EPOCH,MEAN_MOTION,ECCENTRICITY,INCLINATION,RA_OF_ASC_NODE,ARG_OF_PERICENTER,MEAN_ANOMALY,EPHEMERIS_TYPE,CLASSIFICATION_TYPE,NORAD_CAT_ID,ELEMENT_SET_NO,REV_AT_EPOCH,BSTAR,MEAN_MOTION_DOT,MEAN_MOTION_DDOT
STARLINK-34944,2025-175J,2026-07-04T21:18:04.383936,15.05680846,.00025795,97.2848,56.4934,91.7435,268.4088,0,U,65182,999,5027,.66416922E-3,.9548E-4,0
STARLINK-34939,2025-175K,2026-07-04T21:14:04.382016,15.05666533,.00020716,97.2845,56.4966,88.9922,271.1543,0,U,65183,999,5024,.37647112E-3,.5382E-4,0
STARLINK-34947,2025-175L,2026-07-04T21:10:05.118816,15.05672508,.00021593,97.2844,56.5009,88.4333,271.7142,0,U,65184,999,5027,.50374791E-3,.7224E-4,0
STARLINK-34945,2025-175M,2026-07-05T03:28:53.747328,15.05671059,.00024747,97.2847,56.7555,86.2763,273.8747,0,U,65185,999,5031,.40760634E-3,.5833E-4,0
STARLINK-34965,2025-175N,2026-07-05T06:32:19.817376,15.05662824,.00023982,97.2854,56.8893,73.7382,286.4110,0,U,65186,999,5033,.22555376E-3,.3201E-4,0
STARLINK-34915,2025-175P,2026-07-04T21:02:06.705600,15.05670140,.00025559,97.2846,56.5085,81.3803,278.7714,0,U,65187,999,5027,.4244605E-3,.6077E-4,0
STARLINK-34972,2025-175Q,2026-07-05T03:16:56.214336,15.05667664,.00019109,97.2847,56.7666,86.7674,273.3772,0,U,65188,999,5028,.41285074E-3,.5908E-4,0
STARLINK-34866,2025-175R,2026-07-05T03:12:57.017664,15.05671140,.00019989,97.2851,56.7703,90.1495,269.9961,0,U,65189,999,5031,.48347717E-3,.693E-4,0
STARLINK-34917,2025-175S,2026-07-05T06:00:04.999968,15.05685257,.00016897,97.2857,56.8877,90.6567,193.1605,0,U,65190,999,578,-.360995E-2,-.51813E-3,0
STARLINK-34948,2025-175T,2026-07-05T01:29:15.722592,15.05666569,.00023529,97.2833,56.7127,77.6871,282.4620,0,U,65191,999,5030,.36643866E-3,.5237E-4,0
STARLINK-34955,2025-175U,2026-07-05T03:00:59.438016,15.05667328,.00020918,97.2858,56.7829,87.1884,272.9583,0,U,65192,999,5028,.37702434E-3,.539E-4,0
STARLINK-34950,2025-175V,2026-07-05T02:57:00.140256,15.05668443,.0001606,97.2862,56.7862,92.6466,267.4946,0,U,65193,999,5028,.37127011E-3,.5307E-4,0
STARLINK-34926,2025-175W,2026-07-05T04:16:45.354144,15.05667173,.00027811,97.2846,56.8643,86.9164,273.2382,0,U,65194,999,5029,.32875573E-3,.4693E-4,0
STARLINK-34928,2025-175X,2026-07-05T04:20:44.699424,15.05667746,.00019291,97.2851,56.8596,83.4790,276.6657,0,U,65195,999,5032,.36041849E-3,.515E-4,0
STARLINK-34927,2025-175Y,2026-07-05T01:17:19.101120,15.05675431,.00019258,97.2851,56.7280,90.2043,269.9405,0,U,65196,999,5030,.64736145E-3,.9303E-4,0
STARLINK-34952,2025-175Z,2026-07-05T02:49:02.032032,15.05664953,.00017841,97.2873,56.7964,74.5487,285.5937,0,U,65197,999,5031,.38083199E-3,.5445E-4,0
STARLINK-34981,2025-176A,2026-07-04T19:45:14.193216,15.30287102,.00008308,53.1602,331.5203,77.0856,283.0237,0,U,65198,999,5101,.20216437E-2,.60164E-3,0
STARLINK-34821,2025-176B,2026-07-04T16:34:06.962304,15.34445721,.00008478,53.1595,327.1613,62.8052,297.3037,0,U,65199,999,5099,.18184301E-2,.61658E-3,0
STARLINK-34865,2025-176C,2026-07-04T19:20:39.619968,15.34448178,.00012871,53.1584,327.1737,90.1982,269.9168,0,U,65200,999,5107,.25298531E-2,.86218E-3,0
STARLINK-34843,2025-176D,2026-07-04T18:29:06.845568,15.34463258,.00007929,53.1612,326.9418,106.0078,254.1012,0,U,65201,999,5107,.19812261E-2,.673E-3,0
STARLINK-34905,2025-176E,2026-07-04T09:09:23.661504,15.34421305,.00019035,53.1609,328.7856,78.2599,281.8617,0,U,65202,999,5101,.12736839E-2,.42934E-3,0
STARLINK-34914,2025-176F,2026-07-04T18:26:05.218080,15.34466191,.0001213,53.1605,326.9316,77.0807,283.0332,0,U,65203,999,5107,.19623225E-2,.66655E-3,0
STARLINK-34787,2025-176G,2026-07-04T16:31:05.297664,15.34460837,.00011171,53.1617,327.1449,85.2435,274.8695,0,U,65204,999,5106,.17566254E-2,.59562E-3,0
STARLINK-34796,2025-176H,2026-07-04T15:51:49.679424,15.34454449,.00015637,53.1602,327.6874,75.5199,284.5977,0,U,65205,999,5105,.14852375E-2,.50229E-3,0
STARLINK-34763,2025-176J,2026-07-04T15:45:46.074528,15.34451614,.00014289,53.1610,327.6595,48.0464,312.0660,0,U,65206,999,5104,.14018556E-2,.47365E-3,0
STARLINK-34901,2025-176K,2026-07-04T19:14:34.525536,15.34498204,.00010951,53.1595,327.1428,88.4225,271.6903,0,U,65207,999,5107,.22615812E-2,.77063E-3,0
STARLINK-34841,2025-176L,2026-07-05T00:38:14.241408,15.34427167,.00018777,53.1579,325.7050,70.0670,290.0535,0,U,65208,999,5111,.13195736E-2,.44512E-3,0
STARLINK-34976,2025-176M,2026-07-04T18:50:19.491648,15.34472109,.00011655,53.1606,327.0326,65.1157,294.9967,0,U,65209,999,5107,.16232984E-2,.54999E-3,0
STARLINK-34941,2025-176N,2026-07-04T19:11:34.232064,15.34362805,.00003211,53.1612,327.1298,110.8022,249.3015,0,U,65210,999,5107,.12703169E-2,.42737E-3,0
STARLINK-34847,2025-176P,2026-07-05T00:00:02.999808,15.34370267,.00007151,53.1601,327.7042,97.4078,240.9496,0,U,65211,999,506,.25478827E-3,.8234E-4,0
