STARLINK-34944          
1 65182U 25175J   26185.88755074  .00009548  00000+0  66417-3 0  9990
2 65182  97.2848  56.4934 0002579  91.7435 268.4088 15.05680846 50278
STARLINK-34939          
1 65183U 25175K   26185.88477294  .00005382  00000+0  37647-3 0  9991
2 65183  97.2845  56.4966 0002071  88.9922 271.1543 15.05666533 50248
STARLINK-34947          
1 65184U 25175L   26185.88200369  .00007224  00000+0  50375-3 0  9999
2 65184  97.2844  56.5009 0002159  88.4333 271.7142 15.05672508 50278
STARLINK-34945          
1 65185U 25175M   26186.14506652  .00005833  00000+0  40761-3 0  9996
2 65185  97.2847  56.7555 0002474  86.2763 273.8747 15.05671059 50312
STARLINK-34965          
1 65186U 25175N   26186.27245159  .00003201  00000+0  22555-3 0  9991
2 65186  97.2854  56.8893 0002398  73.7382 286.4110 15.05662824 50336
STARLINK-34915          
1 65187U 25175P   26185.87646650  .00006077  00000+0  42446-3 0  9993
2 65187  97.2846  56.5085 0002555  81.3803 278.7714 15.05670140 50273
STARLINK-34972          
1 65188U 25175Q   26186.13676174  .00005908  00000+0  41285-3 0  9990
2 65188  97.2847  56.7666 0001910  86.7674 273.3772 15.05667664 50284
STARLINK-34866          
1 65189U 25175R   26186.13399326  .00006930  00000+0  48348-3 0  9995
2 65189  97.2851  56.7703 0001998  90.1495 269.9961 15.05671140 50317
STARLINK-34917          
1 65190U 25175S   26186.25005787 -.00051813  00000+0 -36099-2 0  9996
2 65190  97.2857  56.8877 0001689  90.6567 193.1605 15.05685257  5788
STARLINK-34948          
1 65191U 25175T   26186.06198753  .00005237  00000+0  36644-3 0  9996
2 65191  97.2833  56.7127 0002352  77.6871 282.4620 15.05666569 50303
STARLINK-34955          
1 65192U 25175U   26186.12568794  .00005390  00000+0  37702-3 0  9996
2 65192  97.2858  56.7829 0002091  87.1884 272.9583 15.05667328 50283
STARLINK-34950          
1 65193U 25175V   26186.12291829  .00005307  00000+0  37127-3 0  9998
2 65193  97.2862  56.7862 0001606  92.6466 267.4946 15.05668443 50285
STARLINK-34926          
1 65194U 25175W   26186.17830271  .00004693  00000+0  32876-3 0  9997
2 65194  97.2846  56.8643 0002781  86.9164 273.2382 15.05667173 50291
STARLINK-34928          
1 65195U 25175X   26186.18107291  .00005150  00000+0  36042-3 0  9996
2 65195  97.2851  56.8596 0001929  83.4790 276.6657 15.05667746 50327
STARLINK-34927          
1 65196U 25175Y   26186.05369330  .00009303  00000+0  64736-3 0  9992
2 65196  97.2851  56.7280 0001925  90.2043 269.9405 15.05675431 50304
STARLINK-34952          
1 65197U 25175Z   26186.11738463  .00005445  00000+0  38083-3 0  9996
2 65197  97.2873  56.7964 0001784  74.5487 285.5937 15.05664953 50310
STARLINK-34981          
1 65198U 25176A   26185.82308094  .00060164  00000+0  20216-2 0  9995
2 65198  53.1602 331.5203 0000830  77.0856 283.0237 15.30287102 51010
STARLINK-34821          
1 65199U 25176B   26185.69035836  .00061658  00000+0  18184-2 0  9992
2 65199  53.1595 327.1613 0000847  62.8052 297.3037 15.34445721 50995
STARLINK-34865          
1 65200U 25176C   26185.80601412  .00086218  00000+0  25299-2 0  9991
2 65200  53.1584 327.1737 0001287  90.1982 269.9168 15.34448178 51077
STARLINK-34843          
1 65201U 25176D   26185.77021812  .00067300  00000+0  19812-2 0  9993
2 65201  53.1612 326.9418 0000792 106.0078 254.1012 15.34463258 51076
STARLINK-34905          
1 65202U 25176E   26185.38152386  .00042934  00000+0  12737-2 0  9997
2 65202  53.1609 328.7856 0001903  78.2599 281.8617 15.34421305 51011
STARLINK-34914          
1 65203U 25176F   26185.76811595  .00066655  00000+0  19623-2 0  9991
2 65203  53.1605 326.9316 0001213  77.0807 283.0332 15.34466191 51078
STARLINK-34787          
1 65204U 25176G   26185.68825576  .00059562  00000+0  17566-2 0  9990
2 65204  53.1617 327.1449 0001117  85.2435 274.8695 15.34460837 51063
STARLINK-34796          
1 65205U 25176H   26185.66099166  .00050229  00000+0  14852-2 0  9993
2 65205  53.1602 327.6874 0001563  75.5199 284.5977 15.34454449 51051
STARLINK-34763          
1 65206U 25176J   26185.65678327  .00047365  00000+0  14019-2 0  9997
2 65206  53.1610 327.6595 0001428  48.0464 312.0660 15.34451614 51047
STARLINK-34901          
1 65207U 25176K   26185.80178849  .00077063  00000+0  22616-2 0  9999
2 65207  53.1595 327.1428 0001095  88.4225 271.6903 15.34498204 51072
STARLINK-34841          
1 65208U 25176L   26186.02655372  .00044512  00000+0  13196-2 0  9992
2 65208  53.1579 325.7050 0001877  70.0670 290.0535 15.34427167 51110
STARLINK-34976          
1 65209U 25176M   26185.78494782  .00054999  00000+0  16233-2 0  9996
2 65209  53.1606 327.0326 0001165  65.1157 294.9967 15.34472109 51071
STARLINK-34941          
1 65210U 25176N   26185.79970176  .00042737  00000+0  12703-2 0  9990
2 65210  53.1612 327.1298 0000321 110.8022 249.3015 15.34362805 51070
STARLINK-34847          
1 65211U 25176P   26186.00003472  .00008234  00000+0  25479-3 0  9991
2 65211  53.1601 327.7042 0000715  97.4078 240.9496 15.34370267  5069
